[{"OBJECT_NAME":"YAOGAN-20 01A","OBJECT_ID":"2014-047A","EPOCH":"2026-03-09T23:42:48.180096","MEAN_MOTION":13.4543306,"ECCENTRICITY":0.03815274,"INCLINATION":63.3786,"RA_OF_ASC_NODE":274.8961,"ARG_OF_PERICENTER":14.1455,"MEAN_ANOMALY":346.9906,"EPHEMERIS_TYPE":0,"CLASSIFICATION_TYPE":"U","NORAD_CAT_ID":40109,"ELEMENT_SET_NO":999,"REV_AT_EPOCH":56909,"BSTAR":0.00011386118,"MEAN_MOTION_DOT":1.4e-7,"MEAN_MOTION_DDOT":0},{"OBJECT_NAME":"SL-14 DEB","OBJECT_ID":"1991-056BY","EPOCH":"2026-03-09T06:42:43.217568","MEAN_MOTION":13.26678174,"ECCENTRICITY":0.004608,"INCLINATION":82.5583,"RA_OF_ASC_NODE":184.9455,"ARG_OF_PERICENTER":230.953,"MEAN_ANOMALY":128.7493,"EPHEMERIS_TYPE":0,"CLASSIFICATION_TYPE":"U","NORAD_CAT_ID":45334,"ELEMENT_SET_NO":999,"REV_AT_EPOCH":29218,"BSTAR":0.00047970343,"MEAN_MOTION_DOT":2.27e-6,"MEAN_MOTION_DDOT":0}]
